[{"OBJECT_NAME":"STARLINK-2713","OBJECT_ID":"2021-041BB","EPOCH":"2026-03-09T16:00:03.000096","MEAN_MOTION":15.30159001,"ECCENTRICITY":8.76e-5,"INCLINATION":53.1595,"RA_OF_ASC_NODE":113.9599,"ARG_OF_PERICENTER":75.4197,"MEAN_ANOMALY":44.6441,"EPHEMERIS_TYPE":0,"CLASSIFICATION_TYPE":"U","NORAD_CAT_ID":48602,"ELEMENT_SET_NO":999,"REV_AT_EPOCH":575,"BSTAR":0.00060221,"MEAN_MOTION_DOT":0.00017496,"MEAN_MOTION_DDOT":0},{"OBJECT_NAME":"SCS-01 B","OBJECT_ID":"2025-100B","EPOCH":"2026-03-09T21:49:11.508672","MEAN_MOTION":15.3317485,"ECCENTRICITY":0.00088698,"INCLINATION":97.3706,"RA_OF_ASC_NODE":145.9041,"ARG_OF_PERICENTER":288.6157,"MEAN_ANOMALY":71.4122,"EPHEMERIS_TYPE":0,"CLASSIFICATION_TYPE":"U","NORAD_CAT_ID":63983,"ELEMENT_SET_NO":999,"REV_AT_EPOCH":4567,"BSTAR":0.00098809397,"MEAN_MOTION_DOT":0.00031724,"MEAN_MOTION_DDOT":0}]
